{"type": "FeatureCollection", "features": [ {"type": "Feature", "properties": {"norad_id": 38755, "name": "SPOT 6", "group": "resource", "lat": -2.3278298137433846, "lon": -136.58887407313364, "alt_km": 700.9180175461152, "timestamp": "2025-12-04T19:33:59.288295+00:00", "meta": {"OBJECT_NAME": "SPOT 6", "OBJECT_ID": "2012-047A", "EPOCH": "2025-12-04T07:12:32.135616", "MEAN_MOTION": 14.58591264, "ECCENTRICITY": 0.00010499, "INCLINATION": 98.1584, "RA_OF_ASC_NODE": 43.2398, "ARG_OF_PERICENTER": 100.6713, "MEAN_ANOMALY": 259.4604, "EPHEMERIS_TYPE": 0, "CLASSIFICATION_TYPE": "U", "NORAD_CAT_ID": 38755, "ELEMENT_SET_NO": 999, "REV_AT_EPOCH": 70464, "BSTAR": 0.00019799292, "MEAN_MOTION_DOT": 8.76e-06, "MEAN_MOTION_DDOT": 0}, "tle": {"line1": "1 38755U 12047A   25338.30037194  .00000876  00000+0  19799-3 0  9998", "line2": "2 38755  98.1584  43.2398 0001049 100.6713 259.4604 14.58591264704642"}}, "geometry": {"type": "Point", "coordinates": [-136.58887407313364, -2.3278298137433846]}}, {"type": "Feature", "properties": {"norad_id": 39019, "name": "PLEIADES 1B", "group": "resource", "lat": 78.70309225560655, "lon": 5.5298393175360125, "alt_km": 689.6675463943848, "timestamp": "2025-12-04T19:33:59.288304+00:00", "meta": {"OBJECT_NAME": "PLEIADES 1B", "OBJECT_ID": "2012-068A", "EPOCH": "2025-12-04T07:39:57.369600", "MEAN_MOTION": 14.58540656, "ECCENTRICITY": 0.00012446, "INCLINATION": 98.1804, "RA_OF_ASC_NODE": 51.1038, "ARG_OF_PERICENTER": 87.5177, "MEAN_ANOMALY": 272.6165, "EPHEMERIS_TYPE": 0, "CLASSIFICATION_TYPE": "U", "NORAD_CAT_ID": 39019, "ELEMENT_SET_NO": 999, "REV_AT_EPOCH": 69244, "BSTAR": 0.00020501923, "MEAN_MOTION_DOT": 9.07e-06, "MEAN_MOTION_DDOT": 0}, "tle": {"line1": "1 39019U 12068A   25338.31941400  .00000907  00000+0  20502-3 0  9999", "line2": "2 39019  98.1804  51.1038 0001244  87.5177 272.6165 14.58540656692446"}}, "geometry": {"type": "Point", "coordinates": [5.5298393175360125, 78.70309225560655]}}, {"type": "Feature", "properties": {"norad_id": 39030, "name": "GOKTURK 2", "group": "resource", "lat": -1.2255259128390148, "lon": 0.6925659955287922, "alt_km": 647.4180627399965, "timestamp": "2025-12-04T19:33:59.288313+00:00", "meta": {"OBJECT_NAME": "GOKTURK 2", "OBJECT_ID": "2012-073A", "EPOCH": "2025-12-04T07:21:12.571200", "MEAN_MOTION": 14.75273608, "ECCENTRICITY": 8.118e-05, "INCLINATION": 97.6899, "RA_OF_ASC_NODE": 180.3745, "ARG_OF_PERICENTER": 96.8122, "MEAN_ANOMALY": 263.318, "EPHEMERIS_TYPE": 0, "CLASSIFICATION_TYPE": "U", "NORAD_CAT_ID": 39030, "ELEMENT_SET_NO": 999, "REV_AT_EPOCH": 69577, "BSTAR": 0.00019985987, "MEAN_MOTION_DOT": 1.306e-05, "MEAN_MOTION_DDOT": 0}, "tle": {"line1": "1 39030U 12073A   25338.30639550  .00001306  00000+0  19986-3 0  9995", "line2": "2 39030  97.6899 180.3745 0000811  96.8122 263.3180 14.75273608695771"}}, "geometry": {"type": "Point", "coordinates": [0.6925659955287922, -1.2255259128390148]}}, {"type": "Feature", "properties": {"norad_id": 39084, "name": "LANDSAT 8", "group": "resource", "lat": -65.50573008386209, "lon": 65.47620507108941, "alt_km": 710.4767283227357, "timestamp": "2025-12-04T19:33:59.288322+00:00", "meta": {"OBJECT_NAME": "LANDSAT 8", "OBJECT_ID": "2013-008A", "EPOCH": "2025-12-04T05:02:24.406944", "MEAN_MOTION": 14.57102266, "ECCENTRICITY": 0.00011649, "INCLINATION": 98.2083, "RA_OF_ASC_NODE": 46.4091, "ARG_OF_PERICENTER": 85.2683, "MEAN_ANOMALY": 274.8649, "EPHEMERIS_TYPE": 0, "CLASSIFICATION_TYPE": "U", "NORAD_CAT_ID": 39084, "ELEMENT_SET_NO": 999, "REV_AT_EPOCH": 66950, "BSTAR": 0.00029716192, "MEAN_MOTION_DOT": 1.294e-05, "MEAN_MOTION_DDOT": 0}, "tle": {"line1": "1 39084U 13008A   25338.21000471  .00001294  00000+0  29716-3 0  9995", "line2": "2 39084  98.2083  46.4091 0001164  85.2683 274.8649 14.57102266669504"}}, "geometry": {"type": "Point", "coordinates": [65.47620507108941, -65.50573008386209]}}, {"type": "Feature", "properties": {"norad_id": 39086, "name": "SARAL", "group": "resource", "lat": -70.60975011641662, "lon": -42.45775770400099, "alt_km": 791.0102681762146, "timestamp": "2025-12-04T19:33:59.288331+00:00", "meta": {"OBJECT_NAME": "SARAL", "OBJECT_ID": "2013-009A", "EPOCH": "2025-12-04T06:39:33.484896", "MEAN_MOTION": 14.32752622, "ECCENTRICITY": 0.0002655, "INCLINATION": 98.5506, "RA_OF_ASC_NODE": 162.3182, "ARG_OF_PERICENTER": 124.8778, "MEAN_ANOMALY": 235.2656, "EPHEMERIS_TYPE": 0, "CLASSIFICATION_TYPE": "U", "NORAD_CAT_ID": 39086, "ELEMENT_SET_NO": 999, "REV_AT_EPOCH": 66769, "BSTAR": 0.00012572272, "MEAN_MOTION_DOT": 2.99e-06, "MEAN_MOTION_DDOT": 0}, "tle": {"line1": "1 39086U 13009A   25338.27747089  .00000299  00000+0  12572-3 0  9993", "line2": "2 39086  98.5506 162.3182 0002655 124.8778 235.2656 14.32752622667696"}}, "geometry": {"type": "Point", "coordinates": [-42.45775770400099, -70.60975011641662]}}, {"type": "Feature", "properties": {"norad_id": 39150, "name": "GAOFEN-1", "group": "resource", "lat": -43.367199596957576, "lon": -137.95498747971595, "alt_km": 640.056837537797, "timestamp": "2025-12-04T19:33:59.288341+00:00", "meta": {"OBJECT_NAME": "GAOFEN-1", "OBJECT_ID": "2013-018A", "EPOCH": "2025-12-04T08:47:53.574720", "MEAN_MOTION": 14.76511608, "ECCENTRICITY": 0.00177088, "INCLINATION": 97.9337, "RA_OF_ASC_NODE": 49.1735, "ARG_OF_PERICENTER": 169.2817, "MEAN_ANOMALY": 190.8774, "EPHEMERIS_TYPE": 0, "CLASSIFICATION_TYPE": "U", "NORAD_CAT_ID": 39150, "ELEMENT_SET_NO": 999, "REV_AT_EPOCH": 67949, "BSTAR": 0.00024473525, "MEAN_MOTION_DOT": 1.658e-05, "MEAN_MOTION_DDOT": 0}, "tle": {"line1": "1 39150U 13018A   25338.36659230  .00001658  00000+0  24474-3 0  9999", "line2": "2 39150  97.9337  49.1735 0017708 169.2817 190.8774 14.76511608679494"}}, "geometry": {"type": "Point", "coordinates": [-137.95498747971595, -43.367199596957576]}}, {"type": "Feature", "properties": {"norad_id": 39160, "name": "VNREDSAT 1", "group": "resource", "lat": -74.70811415933412, "lon": -176.31972389182363, "alt_km": 685.6520839525429, "timestamp": "2025-12-04T19:33:59.288350+00:00", "meta": {"OBJECT_NAME": "VNREDSAT 1", "OBJECT_ID": "2013-021B", "EPOCH": "2025-12-04T08:33:41.554080", "MEAN_MOTION": 14.64903846, "ECCENTRICITY": 0.00013551, "INCLINATION": 97.9385, "RA_OF_ASC_NODE": 33.9251, "ARG_OF_PERICENTER": 83.6499, "MEAN_ANOMALY": 276.4858, "EPHEMERIS_TYPE": 0, "CLASSIFICATION_TYPE": "U", "NORAD_CAT_ID": 39160, "ELEMENT_SET_NO": 999, "REV_AT_EPOCH": 67176, "BSTAR": 0.00027768859, "MEAN_MOTION_DOT": 1.439e-05, "MEAN_MOTION_DDOT": 0}, "tle": {"line1": "1 39160U 13021B   25338.35673095  .00001439  00000+0  27769-3 0  9995", "line2": "2 39160  97.9385  33.9251 0001355  83.6499 276.4858 14.64903846671760"}}, "geometry": {"type": "Point", "coordinates": [-176.31972389182363, -74.70811415933412]}}, {"type": "Feature", "properties": {"norad_id": 39227, "name": "ARIRANG-5 (KOMPSAT-5)", "group": "resource", "lat": -70.99353947033129, "lon": -173.91148727438176, "alt_km": 562.8600503978269, "timestamp": "2025-12-04T19:33:59.288359+00:00", "meta": {"OBJECT_NAME": "ARIRANG-5 (KOMPSAT-5)", "OBJECT_ID": "2013-042A", "EPOCH": "2025-12-04T07:07:08.156352", "MEAN_MOTION": 15.04509458, "ECCENTRICITY": 0.00042207, "INCLINATION": 97.6153, "RA_OF_ASC_NODE": 162.7213, "ARG_OF_PERICENTER": 80.1184, "MEAN_ANOMALY": 280.0519, "EPHEMERIS_TYPE": 0, "CLASSIFICATION_TYPE": "U", "NORAD_CAT_ID": 39227, "ELEMENT_SET_NO": 999, "REV_AT_EPOCH": 67455, "BSTAR": 0.00025348129, "MEAN_MOTION_DOT": 3.49e-05, "MEAN_MOTION_DDOT": 0}, "tle": {"line1": "1 39227U 13042A   25338.29662218  .00003490  00000+0  25348-3 0  9990", "line2": "2 39227  97.6153 162.7213 0004220  80.1184 280.0519 15.04509458674551"}}, "geometry": {"type": "Point", "coordinates": [-173.91148727438176, -70.99353947033129]}}, {"type": "Feature", "properties": {"norad_id": 39418, "name": "SKYSAT-A", "group": "resource", "lat": 77.68222311839064, "lon": -114.13622709908411, "alt_km": 537.9925123850562, "timestamp": "2025-12-04T19:33:59.288368+00:00", "meta": {"OBJECT_NAME": "SKYSAT-A", "OBJECT_ID": "2013-066C", "EPOCH": "2025-12-04T03:14:12.649632", "MEAN_MOTION": 15.11504437, "ECCENTRICITY": 0.00203866, "INCLINATION": 97.4124, "RA_OF_ASC_NODE": 28.6054, "ARG_OF_PERICENTER": 268.3759, "MEAN_ANOMALY": 91.5137, "EPHEMERIS_TYPE": 0, "CLASSIFICATION_TYPE": "U", "NORAD_CAT_ID": 39418, "ELEMENT_SET_NO": 999, "REV_AT_EPOCH": 65900, "BSTAR": 0.00043248877, "MEAN_MOTION_DOT": 7.298e-05, "MEAN_MOTION_DDOT": 0}, "tle": {"line1": "1 39418U 13066C   25338.13486863  .00007298  00000+0  43249-3 0  9991", "line2": "2 39418  97.4124  28.6054 0020386 268.3759  91.5137 15.11504437659005"}}, "geometry": {"type": "Point", "coordinates": [-114.13622709908411, 77.68222311839064]}}, {"type": "Feature", "properties": {"norad_id": 39419, "name": "DUBAISAT-2", "group": "resource", "lat": -25.091230507542093, "lon": -27.021870922063513, "alt_km": 539.703514961715, "timestamp": "2025-12-04T19:33:59.288377+00:00", "meta": {"OBJECT_NAME": "DUBAISAT-2", "OBJECT_ID": "2013-066D", "EPOCH": "2025-12-04T06:56:24.298368", "MEAN_MOTION": 15.08228419, "ECCENTRICITY": 0.00113542, "INCLINATION": 97.4438, "RA_OF_ASC_NODE": 328.9585, "ARG_OF_PERICENTER": 352.6399, "MEAN_ANOMALY": 7.4661, "EPHEMERIS_TYPE": 0, "CLASSIFICATION_TYPE": "U", "NORAD_CAT_ID": 39419, "ELEMENT_SET_NO": 999, "REV_AT_EPOCH": 65699, "BSTAR": 0.00063043498, "MEAN_MOTION_DOT": 9.718e-05, "MEAN_MOTION_DDOT": 0}, "tle": {"line1": "1 39419U 13066D   25338.28917012  .00009718  00000+0  63043-3 0  9996", "line2": "2 39419  97.4438 328.9585 0011354 352.6399   7.4661 15.08228419656993"}}, "geometry": {"type": "Point", "coordinates": [-27.021870922063513, -25.091230507542093]}}]}